CCSDS_OMM_VERS = 2.0
CREATION_DATE  = 
ORIGINATOR     = 

OBJECT_NAME    = SL-16 R/B
OBJECT_ID      = 1998-045B
CENTER_NAME    = EARTH
REF_FRAME      = TEME
TIME_SYSTEM    = UTC
MEAN_ELEMENT_THEORY = SGP/SGP4

EPOCH          = 2026-03-22T06:53:25.935072
MEAN_MOTION    = 14.16195529
ECCENTRICITY   = .00076147
INCLINATION    = 71.0118
RA_OF_ASC_NODE = 155.0841
ARG_OF_PERICENTER = 348.0463
MEAN_ANOMALY   = 12.0478

EPHEMERIS_TYPE = 0
CLASSIFICATION_TYPE = U
NORAD_CAT_ID   = 25407
ELEMENT_SET_NO = 999
REV_AT_EPOCH   = 42888
BSTAR          = -.4869765E-5
MEAN_MOTION_DOT = -.57E-6
MEAN_MOTION_DDOT = 0

CCSDS_OMM_VERS = 2.0
CREATION_DATE  = 
ORIGINATOR     = 

OBJECT_NAME    = ISS (ZARYA)
OBJECT_ID      = 1998-067A
CENTER_NAME    = EARTH
REF_FRAME      = TEME
TIME_SYSTEM    = UTC
MEAN_ELEMENT_THEORY = SGP/SGP4

EPOCH          = 2026-03-22T03:54:40.385952
MEAN_MOTION    = 15.48444672
ECCENTRICITY   = .00061864
INCLINATION    = 51.6343
RA_OF_ASC_NODE = 10.6992
ARG_OF_PERICENTER = 218.8034
MEAN_ANOMALY   = 141.2511

EPHEMERIS_TYPE = 0
CLASSIFICATION_TYPE = U
NORAD_CAT_ID   = 25544
ELEMENT_SET_NO = 999
REV_AT_EPOCH   = 55826
BSTAR          = .28686415E-3
MEAN_MOTION_DOT = .15089E-3
MEAN_MOTION_DDOT = 0

CCSDS_OMM_VERS = 2.0
CREATION_DATE  = 
ORIGINATOR     = 

OBJECT_NAME    = CZ-4B R/B
OBJECT_ID      = 1999-025C
CENTER_NAME    = EARTH
REF_FRAME      = TEME
TIME_SYSTEM    = UTC
MEAN_ELEMENT_THEORY = SGP/SGP4

EPOCH          = 2026-03-22T01:55:45.173280
MEAN_MOTION    = 14.18267665
ECCENTRICITY   = .00361868
INCLINATION    = 98.6601
RA_OF_ASC_NODE = 125.0670
ARG_OF_PERICENTER = 310.3577
MEAN_ANOMALY   = 102.7585

EPHEMERIS_TYPE = 0
CLASSIFICATION_TYPE = U
NORAD_CAT_ID   = 25732
ELEMENT_SET_NO = 999
REV_AT_EPOCH   = 38992
BSTAR          = .40724725E-4
MEAN_MOTION_DOT = .41E-6
MEAN_MOTION_DDOT = 0

CCSDS_OMM_VERS = 2.0
CREATION_DATE  = 
ORIGINATOR     = 

OBJECT_NAME    = OKEAN-O
OBJECT_ID      = 1999-039A
CENTER_NAME    = EARTH
REF_FRAME      = TEME
TIME_SYSTEM    = UTC
MEAN_ELEMENT_THEORY = SGP/SGP4

EPOCH          = 2026-03-22T02:08:15.730080
MEAN_MOTION    = 14.80354485
ECCENTRICITY   = .00009379
INCLINATION    = 97.9416
RA_OF_ASC_NODE = 140.8530
ARG_OF_PERICENTER = 79.7759
MEAN_ANOMALY   = 280.3559

EPHEMERIS_TYPE = 0
CLASSIFICATION_TYPE = U
NORAD_CAT_ID   = 25860
ELEMENT_SET_NO = 999
REV_AT_EPOCH   = 43622
BSTAR          = .94653847E-4
MEAN_MOTION_DOT = .67E-5
MEAN_MOTION_DDOT = 0

CCSDS_OMM_VERS = 2.0
CREATION_DATE  = 
ORIGINATOR     = 

OBJECT_NAME    = SL-16 R/B
OBJECT_ID      = 1999-039B
CENTER_NAME    = EARTH
REF_FRAME      = TEME
TIME_SYSTEM    = UTC
MEAN_ELEMENT_THEORY = SGP/SGP4

EPOCH          = 2026-03-22T02:59:43.105344
MEAN_MOTION    = 14.81747868
ECCENTRICITY   = .00140489
INCLINATION    = 97.9940
RA_OF_ASC_NODE = 140.2014
ARG_OF_PERICENTER = 212.6268
MEAN_ANOMALY   = 147.4078

EPHEMERIS_TYPE = 0
CLASSIFICATION_TYPE = U
NORAD_CAT_ID   = 25861
ELEMENT_SET_NO = 999
REV_AT_EPOCH   = 43870
BSTAR          = .79962784E-4
MEAN_MOTION_DOT = .577E-5
MEAN_MOTION_DDOT = 0

CCSDS_OMM_VERS = 2.0
CREATION_DATE  = 
ORIGINATOR     = 

OBJECT_NAME    = DELTA 2 R/B
OBJECT_ID      = 1999-041E
CENTER_NAME    = EARTH
REF_FRAME      = TEME
TIME_SYSTEM    = UTC
MEAN_ELEMENT_THEORY = SGP/SGP4

EPOCH          = 2026-03-22T04:25:20.074368
MEAN_MOTION    = 14.11867020
ECCENTRICITY   = .05026124
INCLINATION    = 51.7600
RA_OF_ASC_NODE = 251.3689
ARG_OF_PERICENTER = 25.2876
MEAN_ANOMALY   = 337.1773

EPHEMERIS_TYPE = 0
CLASSIFICATION_TYPE = U
NORAD_CAT_ID   = 25876
ELEMENT_SET_NO = 999
REV_AT_EPOCH   = 36479
BSTAR          = .10364374E-3
MEAN_MOTION_DOT = .397E-5
MEAN_MOTION_DDOT = 0

CCSDS_OMM_VERS = 2.0
CREATION_DATE  = 
ORIGINATOR     = 

OBJECT_NAME    = HELIOS 1B
OBJECT_ID      = 1999-064A
CENTER_NAME    = EARTH
REF_FRAME      = TEME
TIME_SYSTEM    = UTC
MEAN_ELEMENT_THEORY = SGP/SGP4

EPOCH          = 2026-03-22T05:22:15.179520
MEAN_MOTION    = 14.87745207
ECCENTRICITY   = .00021068
INCLINATION    = 98.1681
RA_OF_ASC_NODE = 343.8347
ARG_OF_PERICENTER = 57.6164
MEAN_ANOMALY   = 302.5255

EPHEMERIS_TYPE = 0
CLASSIFICATION_TYPE = U
NORAD_CAT_ID   = 25977
ELEMENT_SET_NO = 999
REV_AT_EPOCH   = 68712
BSTAR          = .19546408E-3
MEAN_MOTION_DOT = .1724E-4
MEAN_MOTION_DDOT = 0

CCSDS_OMM_VERS = 2.0
CREATION_DATE  = 
ORIGINATOR     = 

OBJECT_NAME    = TERRA
OBJECT_ID      = 1999-068A
CENTER_NAME    = EARTH
REF_FRAME      = TEME
TIME_SYSTEM    = UTC
MEAN_ELEMENT_THEORY = SGP/SGP4

EPOCH          = 2026-03-22T06:01:05.160288
MEAN_MOTION    = 14.61027505
ECCENTRICITY   = .00033778
INCLINATION    = 97.9567
RA_OF_ASC_NODE = 134.2040
ARG_OF_PERICENTER = 124.6822
MEAN_ANOMALY   = 309.7981

EPHEMERIS_TYPE = 0
CLASSIFICATION_TYPE = U
NORAD_CAT_ID   = 25994
ELEMENT_SET_NO = 999
REV_AT_EPOCH   = 39691
BSTAR          = .1034678E-3
MEAN_MOTION_DOT = .463E-5
MEAN_MOTION_DDOT = 0

CCSDS_OMM_VERS = 2.0
CREATION_DATE  = 
ORIGINATOR     = 

OBJECT_NAME    = SL-16 R/B
OBJECT_ID      = 2000-006B
CENTER_NAME    = EARTH
REF_FRAME      = TEME
TIME_SYSTEM    = UTC
MEAN_ELEMENT_THEORY = SGP/SGP4

EPOCH          = 2026-03-22T05:38:38.055552
MEAN_MOTION    = 14.15823732
ECCENTRICITY   = .00161136
INCLINATION    = 71.0007
RA_OF_ASC_NODE = 71.4557
ARG_OF_PERICENTER = 170.4422
MEAN_ANOMALY   = 189.7011

EPHEMERIS_TYPE = 0
CLASSIFICATION_TYPE = U
NORAD_CAT_ID   = 26070
ELEMENT_SET_NO = 999
REV_AT_EPOCH   = 35033
BSTAR          = .41741547E-4
MEAN_MOTION_DOT = .34E-6
MEAN_MOTION_DDOT = 0

CCSDS_OMM_VERS = 2.0
CREATION_DATE  = 
ORIGINATOR     = 

OBJECT_NAME    = TITAN 4B R/B
OBJECT_ID      = 2000-047B
CENTER_NAME    = EARTH
REF_FRAME      = TEME
TIME_SYSTEM    = UTC
MEAN_ELEMENT_THEORY = SGP/SGP4

EPOCH          = 2026-03-22T02:04:15.037824
MEAN_MOTION    = 15.09676421
ECCENTRICITY   = .00393918
INCLINATION    = 67.9919
RA_OF_ASC_NODE = 5.6496
ARG_OF_PERICENTER = 20.8459
MEAN_ANOMALY   = 339.4285

EPHEMERIS_TYPE = 0
CLASSIFICATION_TYPE = U
NORAD_CAT_ID   = 26474
ELEMENT_SET_NO = 999
REV_AT_EPOCH   = 39478
BSTAR          = .33241507E-3
MEAN_MOTION_DOT = .5331E-4
MEAN_MOTION_DDOT = 0

CCSDS_OMM_VERS = 2.0
CREATION_DATE  = 
ORIGINATOR     = 

OBJECT_NAME    = ENVISAT
OBJECT_ID      = 2002-009A
CENTER_NAME    = EARTH
REF_FRAME      = TEME
TIME_SYSTEM    = UTC
MEAN_ELEMENT_THEORY = SGP/SGP4

EPOCH          = 2026-03-21T20:10:19.505856
MEAN_MOTION    = 14.39041050
ECCENTRICITY   = .00012711
INCLINATION    = 98.3749
RA_OF_ASC_NODE = 34.1500
ARG_OF_PERICENTER = 81.8976
MEAN_ANOMALY   = 292.7223

EPHEMERIS_TYPE = 0
CLASSIFICATION_TYPE = U
NORAD_CAT_ID   = 27386
ELEMENT_SET_NO = 999
REV_AT_EPOCH   = 26092
BSTAR          = .51856841E-4
MEAN_MOTION_DOT = .117E-5
MEAN_MOTION_DDOT = 0

CCSDS_OMM_VERS = 2.0
CREATION_DATE  = 
ORIGINATOR     = 

OBJECT_NAME    = IDEFIX & ARIANE 42P R/B
OBJECT_ID      = 2002-021B
CENTER_NAME    = EARTH
REF_FRAME      = TEME
TIME_SYSTEM    = UTC
MEAN_ELEMENT_THEORY = SGP/SGP4

EPOCH          = 2026-03-21T22:35:52.581984
MEAN_MOTION    = 14.31034007
ECCENTRICITY   = .00122833
INCLINATION    = 98.5884
RA_OF_ASC_NODE = 19.4023
ARG_OF_PERICENTER = 146.5907
MEAN_ANOMALY   = 213.6054

EPHEMERIS_TYPE = 0
CLASSIFICATION_TYPE = U
NORAD_CAT_ID   = 27422
ELEMENT_SET_NO = 999
REV_AT_EPOCH   = 24577
BSTAR          = .11370094E-3
MEAN_MOTION_DOT = .256E-5
MEAN_MOTION_DDOT = 0

